[{"OBJECT_NAME":"ION SCV-018","OBJECT_ID":"2025-135AZ","EPOCH":"2026-03-09T20:46:52.870080","MEAN_MOTION":14.94433361,"ECCENTRICITY":0.00112281,"INCLINATION":97.7645,"RA_OF_ASC_NODE":184.9218,"ARG_OF_PERICENTER":262.207,"MEAN_ANOMALY":97.7875,"EPHEMERIS_TYPE":0,"CLASSIFICATION_TYPE":"U","NORAD_CAT_ID":64575,"ELEMENT_SET_NO":999,"REV_AT_EPOCH":3909,"BSTAR":0.00019355798,"MEAN_MOTION_DOT":2.03e-5,"MEAN_MOTION_DDOT":0},{"OBJECT_NAME":"AISSAT 2","OBJECT_ID":"2014-037G","EPOCH":"2026-03-09T20:52:41.535552","MEAN_MOTION":14.93076094,"ECCENTRICITY":0.00035743,"INCLINATION":98.3947,"RA_OF_ASC_NODE":35.1738,"ARG_OF_PERICENTER":210.113,"MEAN_ANOMALY":149.9883,"EPHEMERIS_TYPE":0,"CLASSIFICATION_TYPE":"U","NORAD_CAT_ID":40075,"ELEMENT_SET_NO":999,"REV_AT_EPOCH":63192,"BSTAR":0.00031770264,"MEAN_MOTION_DOT":3.245e-5,"MEAN_MOTION_DDOT":0}]
